{"type": "FeatureCollection", "features": [ {"type": "Feature", "properties": {"norad_id": 66369, "name": "STARLINK-35795", "group": "last-30-days", "lat": 16.638352190977116, "lon": -40.70756225960786, "alt_km": 342.1748391718438, "timestamp": "2025-12-06T09:34:15.697666+00:00", "meta": {"OBJECT_NAME": "STARLINK-35795", "OBJECT_ID": "2025-254X", "EPOCH": "2025-12-04T02:39:36.815328", "MEAN_MOTION": 15.74349696, "ECCENTRICITY": 0.00030446, "INCLINATION": 53.1567, "RA_OF_ASC_NODE": 317.7168, "ARG_OF_PERICENTER": 147.1731, "MEAN_ANOMALY": 212.9479, "EPHEMERIS_TYPE": 0, "CLASSIFICATION_TYPE": "U", "NORAD_CAT_ID": 66369, "ELEMENT_SET_NO": 999, "REV_AT_EPOCH": 432, "BSTAR": 0.0021458163, "MEAN_MOTION_DOT": 0.00328479, "MEAN_MOTION_DDOT": 0}, "tle": {"line1": "1 66369U 25254X   25338.11084277  .00328479  00000+0  21458-2 0  9993", "line2": "2 66369  53.1567 317.7168 0003044 147.1731 212.9479 15.74349696  4324"}}, "geometry": {"type": "Point", "coordinates": [-40.70756225960786, 16.638352190977116]}}, {"type": "Feature", "properties": {"norad_id": 66370, "name": "STARLINK-35824", "group": "last-30-days", "lat": 16.344664550820482, "lon": -40.950608001582886, "alt_km": 343.44521072594944, "timestamp": "2025-12-06T09:34:15.697675+00:00", "meta": {"OBJECT_NAME": "STARLINK-35824", "OBJECT_ID": "2025-254Y", "EPOCH": "2025-12-05T10:38:04.231392", "MEAN_MOTION": 15.74349916, "ECCENTRICITY": 7.28e-05, "INCLINATION": 53.157, "RA_OF_ASC_NODE": 311.0938, "ARG_OF_PERICENTER": 100.1215, "MEAN_ANOMALY": 259.9887, "EPHEMERIS_TYPE": 0, "CLASSIFICATION_TYPE": "U", "NORAD_CAT_ID": 66370, "ELEMENT_SET_NO": 999, "REV_AT_EPOCH": 453, "BSTAR": 0.0018787045, "MEAN_MOTION_DOT": 0.00286047, "MEAN_MOTION_DDOT": 0}, "tle": {"line1": "1 66370U 25254Y   25339.44310453  .00286047  00000+0  18787-2 0  9995", "line2": "2 66370  53.1570 311.0938 0000728 100.1215 259.9887 15.74349916  4536"}}, "geometry": {"type": "Point", "coordinates": [-40.950608001582886, 16.344664550820482]}}, {"type": "Feature", "properties": {"norad_id": 66371, "name": "STARLINK-35804", "group": "last-30-days", "lat": 17.27780472856353, "lon": -40.17113540715798, "alt_km": 344.0308326058084, "timestamp": "2025-12-06T09:34:15.697691+00:00", "meta": {"OBJECT_NAME": "STARLINK-35804", "OBJECT_ID": "2025-254Z", "EPOCH": "2025-12-05T00:00:02.999808", "MEAN_MOTION": 15.74124594, "ECCENTRICITY": 0.00011956, "INCLINATION": 53.158, "RA_OF_ASC_NODE": 313.2878, "ARG_OF_PERICENTER": 90.6735, "MEAN_ANOMALY": 278.9415, "EPHEMERIS_TYPE": 0, "CLASSIFICATION_TYPE": "U", "NORAD_CAT_ID": 66371, "ELEMENT_SET_NO": 999, "REV_AT_EPOCH": 567, "BSTAR": 0.0010837698, "MEAN_MOTION_DOT": 0.00160705, "MEAN_MOTION_DDOT": 0}, "tle": {"line1": "1 66371U 25254Z   25339.00003472  .00160705  00000+0  10838-2 0  9999", "line2": "2 66371  53.1580 313.2878 0001195  90.6735 278.9415 15.74124594  5671"}}, "geometry": {"type": "Point", "coordinates": [-40.17113540715798, 17.27780472856353]}}, {"type": "Feature", "properties": {"norad_id": 66372, "name": "STARLINK-35821", "group": "last-30-days", "lat": 21.71812969953529, "lon": -36.29052708813829, "alt_km": 337.88887693349443, "timestamp": "2025-12-06T09:34:15.697701+00:00", "meta": {"OBJECT_NAME": "STARLINK-35821", "OBJECT_ID": "2025-254AA", "EPOCH": "2025-12-04T10:15:15.064416", "MEAN_MOTION": 15.7441561, "ECCENTRICITY": 0.0001567, "INCLINATION": 53.1569, "RA_OF_ASC_NODE": 316.1358, "ARG_OF_PERICENTER": 64.6576, "MEAN_ANOMALY": 295.4606, "EPHEMERIS_TYPE": 0, "CLASSIFICATION_TYPE": "U", "NORAD_CAT_ID": 66372, "ELEMENT_SET_NO": 999, "REV_AT_EPOCH": 437, "BSTAR": 0.0030875, "MEAN_MOTION_DOT": 0.00483155, "MEAN_MOTION_DDOT": 0}, "tle": {"line1": "1 66372U 25254AA  25338.42725769  .00483155  00000+0  30875-2 0  9995", "line2": "2 66372  53.1569 316.1358 0001567  64.6576 295.4606 15.74415610  4375"}}, "geometry": {"type": "Point", "coordinates": [-36.29052708813829, 21.71812969953529]}}, {"type": "Feature", "properties": {"norad_id": 66373, "name": "STARLINK-35809", "group": "last-30-days", "lat": 18.7349298533984, "lon": -38.92841908266558, "alt_km": 343.56424674120353, "timestamp": "2025-12-06T09:34:15.697711+00:00", "meta": {"OBJECT_NAME": "STARLINK-35809", "OBJECT_ID": "2025-254AB", "EPOCH": "2025-12-05T22:48:29.749248", "MEAN_MOTION": 15.74470017, "ECCENTRICITY": 0.00018945, "INCLINATION": 53.1571, "RA_OF_ASC_NODE": 308.5669, "ARG_OF_PERICENTER": 130.7057, "MEAN_ANOMALY": 229.4127, "EPHEMERIS_TYPE": 0, "CLASSIFICATION_TYPE": "U", "NORAD_CAT_ID": 66373, "ELEMENT_SET_NO": 999, "REV_AT_EPOCH": 461, "BSTAR": 0.0031057751, "MEAN_MOTION_DOT": 0.00487401, "MEAN_MOTION_DDOT": 0}, "tle": {"line1": "1 66373U 25254AB  25339.95034432  .00487401  00000+0  31058-2 0  9997", "line2": "2 66373  53.1571 308.5669 0001894 130.7057 229.4127 15.74470017  4615"}}, "geometry": {"type": "Point", "coordinates": [-38.92841908266558, 18.7349298533984]}}, {"type": "Feature", "properties": {"norad_id": 66374, "name": "STARLINK-35831", "group": "last-30-days", "lat": 20.500108322728845, "lon": -37.38402509370115, "alt_km": 340.7058910415981, "timestamp": "2025-12-06T09:34:15.697721+00:00", "meta": {"OBJECT_NAME": "STARLINK-35831", "OBJECT_ID": "2025-254AC", "EPOCH": "2025-12-05T15:10:54.606144", "MEAN_MOTION": 15.7432573, "ECCENTRICITY": 0.00041826, "INCLINATION": 53.1572, "RA_OF_ASC_NODE": 310.1414, "ARG_OF_PERICENTER": 66.4364, "MEAN_ANOMALY": 293.7095, "EPHEMERIS_TYPE": 0, "CLASSIFICATION_TYPE": "U", "NORAD_CAT_ID": 66374, "ELEMENT_SET_NO": 999, "REV_AT_EPOCH": 456, "BSTAR": 0.0026107257, "MEAN_MOTION_DOT": 0.00402992, "MEAN_MOTION_DDOT": 0}, "tle": {"line1": "1 66374U 25254AC  25339.63257646  .00402992  00000+0  26107-2 0  9998", "line2": "2 66374  53.1572 310.1414 0004182  66.4364 293.7095 15.74325730  4566"}}, "geometry": {"type": "Point", "coordinates": [-37.38402509370115, 20.500108322728845]}}, {"type": "Feature", "properties": {"norad_id": 66375, "name": "STARLINK-35826", "group": "last-30-days", "lat": 21.26130845481589, "lon": -36.703476956794, "alt_km": 343.8239698418747, "timestamp": "2025-12-06T09:34:15.697731+00:00", "meta": {"OBJECT_NAME": "STARLINK-35826", "OBJECT_ID": "2025-254AD", "EPOCH": "2025-12-05T22:47:31.140672", "MEAN_MOTION": 15.74195959, "ECCENTRICITY": 9.392e-05, "INCLINATION": 53.1572, "RA_OF_ASC_NODE": 308.5635, "ARG_OF_PERICENTER": 103.0678, "MEAN_ANOMALY": 257.0446, "EPHEMERIS_TYPE": 0, "CLASSIFICATION_TYPE": "U", "NORAD_CAT_ID": 66375, "ELEMENT_SET_NO": 999, "REV_AT_EPOCH": 461, "BSTAR": 0.0019491814, "MEAN_MOTION_DOT": 0.00295154, "MEAN_MOTION_DDOT": 0}, "tle": {"line1": "1 66375U 25254AD  25339.94966598  .00295154  00000+0  19492-2 0  9995", "line2": "2 66375  53.1572 308.5635 0000939 103.0678 257.0446 15.74195959  4612"}}, "geometry": {"type": "Point", "coordinates": [-36.703476956794, 21.26130845481589]}}, {"type": "Feature", "properties": {"norad_id": 66376, "name": "SHIYAN-32 01", "group": "last-30-days", "lat": -23.49809051893405, "lon": -170.91710780522533, "alt_km": 436.54290915873844, "timestamp": "2025-12-06T09:34:15.697741+00:00", "meta": {"OBJECT_NAME": "SHIYAN-32 01", "OBJECT_ID": "2025-255A", "EPOCH": "2025-12-05T22:48:53.116992", "MEAN_MOTION": 15.42445891, "ECCENTRICITY": 0.00135284, "INCLINATION": 52.9951, "RA_OF_ASC_NODE": 210.3549, "ARG_OF_PERICENTER": 21.0916, "MEAN_ANOMALY": 339.0644, "EPHEMERIS_TYPE": 0, "CLASSIFICATION_TYPE": "U", "NORAD_CAT_ID": 66376, "ELEMENT_SET_NO": 999, "REV_AT_EPOCH": 430, "BSTAR": 0.00061092123, "MEAN_MOTION_DOT": 0.00026602, "MEAN_MOTION_DDOT": 0}, "tle": {"line1": "1 66376U 25255A   25339.95061478  .00026602  00000+0  61092-3 0  9995", "line2": "2 66376  52.9951 210.3549 0013528  21.0916 339.0644 15.42445891  4302"}}, "geometry": {"type": "Point", "coordinates": [-170.91710780522533, -23.49809051893405]}}, {"type": "Feature", "properties": {"norad_id": 66377, "name": "CZ-11 DEB", "group": "last-30-days", "lat": 38.218239899029506, "lon": -115.49976934583924, "alt_km": 421.604906249092, "timestamp": "2025-12-06T09:34:15.697751+00:00", "meta": {"OBJECT_NAME": "CZ-11 DEB", "OBJECT_ID": "2025-255B", "EPOCH": "2025-12-05T22:28:37.521696", "MEAN_MOTION": 15.43848244, "ECCENTRICITY": 0.00137804, "INCLINATION": 52.9946, "RA_OF_ASC_NODE": 210.2661, "ARG_OF_PERICENTER": 18.4068, "MEAN_ANOMALY": 341.7433, "EPHEMERIS_TYPE": 0, "CLASSIFICATION_TYPE": "U", "NORAD_CAT_ID": 66377, "ELEMENT_SET_NO": 999, "REV_AT_EPOCH": 416, "BSTAR": 0.0011386839, "MEAN_MOTION_DOT": 0.00052562, "MEAN_MOTION_DDOT": 0}, "tle": {"line1": "1 66377U 25255B   25339.93654539  .00052562  00000+0  11387-2 0  9995", "line2": "2 66377  52.9946 210.2661 0013780  18.4068 341.7433 15.43848244  4169"}}, "geometry": {"type": "Point", "coordinates": [-115.49976934583924, 38.218239899029506]}}, {"type": "Feature", "properties": {"norad_id": 66378, "name": "SHIYAN-32 02", "group": "last-30-days", "lat": 52.766192358197934, "lon": -69.02299809630016, "alt_km": 422.73883386189937, "timestamp": "2025-12-06T09:34:15.697761+00:00", "meta": {"OBJECT_NAME": "SHIYAN-32 02", "OBJECT_ID": "2025-255C", "EPOCH": "2025-12-05T22:19:52.260672", "MEAN_MOTION": 15.4447419, "ECCENTRICITY": 0.00120177, "INCLINATION": 52.9932, "RA_OF_ASC_NODE": 210.228, "ARG_OF_PERICENTER": 14.9143, "MEAN_ANOMALY": 345.2214, "EPHEMERIS_TYPE": 0, "CLASSIFICATION_TYPE": "U", "NORAD_CAT_ID": 66378, "ELEMENT_SET_NO": 999, "REV_AT_EPOCH": 416, "BSTAR": 0.0014526724, "MEAN_MOTION_DOT": 0.00068709, "MEAN_MOTION_DDOT": 0}, "tle": {"line1": "1 66378U 25255C   25339.93046598  .00068709  00000+0  14527-2 0  9995", "line2": "2 66378  52.9932 210.2280 0012017  14.9143 345.2214 15.44474190  4161"}}, "geometry": {"type": "Point", "coordinates": [-69.02299809630016, 52.766192358197934]}}]}